#aV2009  6  9  0  0   .00000000      96 DD+AD WGS84 FIT  NGA
## 1535 172800.00000000   900.00000000 54991  .0000000000000
+   31     1  2  3  4  6  7  8  9 10 11 12 13 14 15 16 17 18
+         19 20 21 22 23 24 25 26 27 28 29 30 31 32  0  0  0
+          0  0  0  0  0  0  0  0  0  0  0  0  0  0  0  0  0
+          0  0  0  0  0  0  0  0  0  0  0  0  0  0  0  0  0
+          0  0  0  0  0  0  0  0  0  0  0  0  0  0  0  0  0
++         0  0  0  0  0  0  0  0  0  0  0  0  0  0  0  0  0
++         0  0  0  0  0  0  0  0  0  0  0  0  0  0  0  0  0
++         0  0  0  0  0  0  0  0  0  0  0  0  0  0  0  0  0
++         0  0  0  0  0  0  0  0  0  0  0  0  0  0  0  0  0
++         0  0  0  0  0  0  0  0  0  0  0  0  0  0  0  0  0
%c cc cc ccc ccc cccc cccc cccc cccc ccccc ccccc ccccc ccccc
%c cc cc ccc ccc cccc cccc cccc cccc ccccc ccccc ccccc ccccc
%f  0.0000000  0.000000000  0.00000000000  0.000000000000000
%f  0.0000000  0.000000000  0.00000000000  0.000000000000000
%i    0    0    0    0      0      0      0      0         0
%i    0    0    0    0      0      0      0      0         0
/*      NGA, ST. LOUIS,MO.                                  
/*   EPHEMERIS COMPUTED FROM  3 DAYS OF DATA                
/* CCCCCCCCCCCCCCCCCCCCCCCCCCCCCCCCCCCCCCCCCCCCCCCCCCCCCCCCC
/* CCCCCCCCCCCCCCCCCCCCCCCCCCCCCCCCCCCCCCCCCCCCCCCCCCCCCCCCC
*  2009  6  9  8 15   .00000000                                                 
P  1 -15629.261610 -12045.777404  17740.450018    -80.421687                    
V  1  -3744.160068 -22405.753890 -18319.232491       .060597                    
P  2   3860.921810 -15117.429604  21407.309655    155.902547                    
V  2  26345.890256   7768.727118    318.258270       .010158                    
P  3  -5106.106625  22092.021771 -13850.265971    404.257521                    
V  3 -13602.692295  11159.215426  23696.737177       .052314                    
P  4  17047.499019  -8773.002105  18396.883649   -125.442719                    
V  4  22040.499405   8508.372715 -15885.164426      -.157977                    
P  6 -10944.797126  21893.427857 -10040.318880    154.547111                    
V  6 -11538.328285   7048.846052  27483.698925       .135955                    
P  7  25748.356539   6554.574597  -1792.819855     17.394563                    
V  7   1416.666192   3032.783575  31718.079484      -.006707                    
P  8  22742.774660  -1437.375694 -14109.319595   -206.949716                    
V  8  16083.189670   7194.307702  24793.121764      -.016314                    
P  9 -16879.859718 -14893.409977 -14824.343194     60.226656                    
V  9  17403.432482   3128.743251 -23953.979122       .020132                    
P 10   -709.522352 -25542.657086   6408.369450    -17.268122                    
V 10   4721.571169   7628.016633  30492.268175      -.006059                    
P 11  19542.289262  12517.642881 -13422.916378     -5.777634                    
V 11 -17034.533864   2161.773996 -22781.654234      -.015359                    
P 12 -12147.907152 -21350.321906  10326.768747   -269.081703                    
V 12   -732.068908 -13126.146895 -28063.885258       .057147                    
P 13  19457.794049  -1050.041594  17918.417324    299.033516                    
V 13 -16952.892827  15494.554703  19172.096351       .008358                    
P 14 -21507.005483  14803.750056  -4388.964903    -97.610393                    
V 14   3003.950432  -5278.290990 -31784.902204       .058482                    
P 15   -262.408793 -18439.322582 -19070.349308   -299.389110                    
V 15  18504.067034 -15812.194389  15077.945214      -.032672                    
P 16  -3014.988075  23712.873080  11369.236021     43.608613                    
V 16  -5264.557984 -13633.205373  27414.510237      -.034330                    
P 17  21615.259694 -14110.304171  -5739.809454     63.461618                    
V 17  -3533.689305   7156.816944 -30710.957733       .020840                    
P 18 -16035.966569  -3212.972056 -20760.153825    -49.751511                    
V 18  -4684.919495 -26482.429063   7259.802349       .032489                    
P 19   1524.333680  17043.448913 -20182.289138     23.092496                    
V 19 -20877.262603  15296.700064  11555.664336      -.012414                    
P 20  13590.877085  19791.311980  11273.900865     80.405625                    
V 20    830.708095  14795.573564 -26636.317611      -.009987                    
P 21 -26000.662831  -4756.023887  -4720.582794      9.379598                    
V 21  -4985.134557  -4845.453874  29989.639007      -.021021                    
P 22 -13299.025772  10018.704985 -20521.026257    197.955479                    
V 22  -6106.053411 -25814.016142  -8654.304844      -.009183                    
P 23  11613.202857   9625.842968  21823.684414    390.203096                    
V 23 -20355.358139  18915.955058   2201.938802       .000392                    
P 24 -21559.622026 -13418.868262   7447.688469    195.412543                    
V 24   9871.653654    221.822044  29750.538245       .030142                    
P 25  23917.822663   9457.976814   6543.058280    453.918066                    
V 25  -8243.671344    892.644687  30623.952095       .182616                    
P 26 -14069.884001  -7005.143318 -22059.428514     63.273134                    
V 26  20262.275755 -17084.878619  -7190.557161       .008275                    
P 27 -11004.958146 -15269.696055 -18051.844358     55.985495                    
V 27  23976.207899   4257.941768 -17581.830716       .032012                    
P 28  13595.558821  -6878.508384 -21290.703402    -25.353430                    
V 28   6114.097912  27416.668859  -5161.653738      -.002421                    
P 29 -18777.474804   -984.104073  18849.302562     28.384712                    
V 29  16782.195418 -16839.145006  15969.582852       .038097                    
P 30 -16015.059956 -11887.599602  17210.772151    152.403035                    
V 30  -4218.367854 -22256.147738 -18813.274586       .027905                    
P 31 -14674.724163   9843.465056  20079.203966    -61.979371                    
V 31 -23637.744388  -8085.566579 -13310.740724      -.006958                    
P 32   7205.034986  25278.549870   5062.531512    249.752251                    
V 32  -1512.989325   6164.932963 -30808.703921      -.055286                    
EOF
